{
    "links": {
        "self": "http://www.neowsapp.com/rest/v1/neo/3653811?api_key=iIulBulltgU6a56xZRHN4H3l9WmuAYTsLGpBGhQ2"
    },
    "id": "3653811",
    "neo_reference_id": "3653811",
    "name": "(2013 WL)",
    "designation": "2013 WL",
    "nasa_jpl_url": "http://ssd.jpl.nasa.gov/sbdb.cgi?sstr=3653811",
    "absolute_magnitude_h": 24.2,
    "estimated_diameter": {
        "kilometers": {
            "estimated_diameter_min": 0.0384197891,
            "estimated_diameter_max": 0.0859092601
        },
        "meters": {
            "estimated_diameter_min": 38.4197891064,
            "estimated_diameter_max": 85.9092601232
        },
        "miles": {
            "estimated_diameter_min": 0.0238729428,
            "estimated_diameter_max": 0.0533815229
        },
        "feet": {
            "estimated_diameter_min": 126.0491808919,
            "estimated_diameter_max": 281.8545369825
        }
    },
    "is_potentially_hazardous_asteroid": false,
    "close_approach_data": [
        {
            "close_approach_date": "2000-11-13",
            "close_approach_date_full": "2000-Nov-13 16:10",
            "epoch_date_close_approach": 974131800000,
            "relative_velocity": {
                "kilometers_per_second": "14.0058600797",
                "kilometers_per_hour": "50421.0962867735",
                "miles_per_hour": "31329.7084121899"
            },
            "miss_distance": {
                "astronomical": "0.4494726598",
                "lunar": "174.8448646622",
                "kilometers": "67240152.529314626",
                "miles": "41781093.3666727988"
            },
            "orbiting_body": "Earth"
        },
        {
            "close_approach_date": "2013-12-01",
            "close_approach_date_full": "2013-Dec-01 13:46",
            "epoch_date_close_approach": 1385905560000,
            "relative_velocity": {
                "kilometers_per_second": "6.6557392958",
                "kilometers_per_hour": "23960.6614648593",
                "miles_per_hour": "14888.2232307622"
            },
            "miss_distance": {
                "astronomical": "0.1289029817",
                "lunar": "50.1432598813",
                "kilometers": "19283611.498968979",
                "miles": "11982280.5597267502"
            },
            "orbiting_body": "Earth"
        }
    ],
    "orbital_data": {
        "orbit_id": "12",
        "orbit_determination_date": "2017-04-06 08:43:36",
        "first_observation_date": "2013-11-24",
        "last_observation_date": "2013-12-24",
        "data_arc_in_days": 30,
        "observations_used": 30,
        "orbit_uncertainty": "6",
        "minimum_orbit_intersection": ".126025",
        "jupiter_tisserand_invariant": "3.823",
        "epoch_osculation": "2459000.5",
        "eccentricity": ".41482533304002",
        "semi_major_axis": "1.897500367472001",
        "inclination": "10.34534985514497",
        "ascending_node_longitude": "65.33805819134128",
        "orbital_period": "954.7094687231607",
        "perihelion_distance": "1.110369145591868",
        "perihelion_argument": "7.540910567028374",
        "aphelion_distance": "2.684631589352135",
        "perihelion_time": "2458542.336434441636",
        "mean_anomaly": "172.76343118457",
        "mean_motion": ".3770780659392308",
        "equinox": "J2000",
        "orbit_class": {
            "orbit_class_type": "AMO",
            "orbit_class_description": "Near-Earth asteroid orbits similar to that of 1221 Amor",
            "orbit_class_range": "1.017 AU < q (perihelion) < 1.3 AU"
        }
    },
    "is_sentry_object": false
}